NORAD_CAT_ID,OBJECT_NAME,OBJECT_TYPE,EPOCH,MEAN_MOTION,ECCENTRICITY,INCLINATION,RA_OF_ASC_NODE,ARG_OF_PERICENTER,MEAN_ANOMALY,BSTAR,MEAN_MOTION_DOT,MEAN_MOTION_DDOT,TLE_LINE0,TLE_LINE1,TLE_LINE2,SEMIMAJOR_AXIS,PERIOD,APOGEE,PERIGEE,DECAYED
52088.0,STARLINK-3537,PAYLOAD,2022-04-08 12:00:00,15.94199088,0.0006975,53.216,41.6354,344.516,42.3167,0.00064986,0.00245173,3.428e-05,0 STARLINK-3537,1 52088U 22029A   22098.50001157  .00245173  34280-4  64986-3 0  9997,2 52088  53.2160  41.6354 0006975 344.5160  42.3167 15.94199088  4488,6668.684,90.327,295.2,285.898,0.0
52088.0,STARLINK-3537,PAYLOAD,2022-04-08 14:00:03,15.94232582,0.0006873,53.2162,41.2094,343.9918,161.52200000000005,0.00071443,0.00270333,3.935800000000001e-05,0 STARLINK-3537,1 52088U 22029A   22098.58336806  .00270333  39358-4  71443-3 0  9990,2 52088  53.2162  41.2094 0006873 343.9918 161.5220 15.94232582  3736,6668.590999999999,90.326,295.039,285.872,0.0
52088.0,STARLINK-3537,PAYLOAD,2022-04-08 20:00:01,15.94326376,0.0006694,53.2164,39.933,344.8904,156.1546,0.00068428,0.00260069,3.7261e-05,0 STARLINK-3537,1 52088U 22029A   22098.83334491  .00260069  37261-4  68428-3 0  9991,2 52088  53.2164  39.9330 0006694 344.8904 156.1546 15.94326376  4547,6668.329000000002,90.32,294.658,285.73,0.0
52088.0,STARLINK-3537,PAYLOAD,2022-04-08 22:00:00,15.94386428,0.000675,53.2164,39.5082,345.0186,274.6072,0.00058327,0.00221914,3.0113e-05,0 STARLINK-3537,1 52088U 22029A   22098.91667824  .00221914  30113-4  58327-3 0  9991,2 52088  53.2164  39.5082 0006750 345.0186 274.6072 15.94386428  3706,6668.1619999999975,90.317,294.528,285.526,0.0
52088.0,STARLINK-3537,PAYLOAD,2022-04-09 04:00:00,15.944753099999998,0.0006941,53.2164,38.2336,346.2277,269.2286,0.00061014,0.00233448,3.2179e-05,0 STARLINK-3537,1 52088U 22029A   22099.16667824  .00233448  32179-4  61014-3 0  9995,2 52088  53.2164  38.2336 0006941 346.2277 269.2286 15.94475310  4594,6667.9140000000025,90.312,294.407,285.151,0.0
52088.0,STARLINK-3537,PAYLOAD,2022-04-09 12:00:00,15.94655817,0.0006763,53.2165,36.5301,345.881,24.1589,0.00052598,0.00202737,2.702e-05,0 STARLINK-3537,1 52088U 22029A   22099.50001157  .00202737  27020-4  52598-3 0  9997,2 52088  53.2165  36.5301 0006763 345.8810  24.1589 15.94655817  4640,6667.411,90.302,293.785,284.766,0.0
52088.0,STARLINK-3537,PAYLOAD,2022-04-09 14:00:01,15.94676629,0.0006681,53.2167,36.104,345.5023,143.2238,0.00061915,0.00239508,3.3358e-05,0 STARLINK-3537,1 52088U 22029A   22099.58334491  .00239508  33358-4  61915-3 0  9995,2 52088  53.2167  36.1040 0006681 345.5023 143.2238 15.94676629  3748,6667.353,90.3,293.672,284.763,0.0
52088.0,STARLINK-3537,PAYLOAD,2022-04-09 20:00:01,15.94827603,0.0006492999999999,53.2166,34.8264,346.576,138.273,0.00068885,0.00269011,3.9306e-05,0 STARLINK-3537,1 52088U 22029A   22099.83334491  .00269011  39306-4  68885-3 0  9997,2 52088  53.2166  34.8264 0006493 346.5760 138.2730 15.94827603  4708,6666.932,90.292,293.126,284.468,0.0
52088.0,STARLINK-3537,PAYLOAD,2022-04-09 22:00:00,15.94887985,0.0006561,53.2165,34.4013,346.6506,256.9305,0.00059594,0.00233054,3.2226999999999995e-05,0 STARLINK-3537,1 52088U 22029A   22099.91667824  .00233054  32227-4  59594-3 0  9995,2 52088  53.2165  34.4013 0006561 346.6506 256.9305 15.94887985  3759,6666.764,90.288,293.003,284.254,0.0
52088.0,STARLINK-3537,PAYLOAD,2022-04-10 04:00:00,15.94997842,0.0006746,53.2161,33.1256,347.849,252.0421,0.00069626,0.00274522,4.0557e-05,0 STARLINK-3537,1 52088U 22029A   22100.16667824  .00274522  40557-4  69626-3 0  9992,2 52088  53.2161  33.1256 0006746 347.8490 252.0421 15.94997842  4751,6666.456999999999,90.282,292.82,283.825,0.0
52088.0,STARLINK-3537,PAYLOAD,2022-04-10 10:00:00,15.95142424,0.0006632999999999,53.2156,31.8471,347.4647,248.8102,0.00052877,0.0020931,2.8187e-05,0 STARLINK-3537,1 52088U 22029A   22100.41667824  .00209310  28187-4  52877-3 0  9998,2 52088  53.2156  31.8471 0006633 347.4647 248.8102 15.95142424  4796,6666.055,90.274,292.341,283.498,0.0
52088.0,STARLINK-3537,PAYLOAD,2022-04-13 20:00:01,15.96868071,0.0005746,53.2164,14.3614,350.8645,87.9074,0.00057582,0.00250942,3.6307e-05,0 STARLINK-3537,1 52088U 22029A   22103.83335648  .00250942  36307-4  57582-3 0  9991,2 52088  53.2164  14.3614 0005746 350.8645  87.9074 15.96868071  5335,6661.251,90.177,286.944,279.289,0.0
52088.0,STARLINK-3537,PAYLOAD,2022-04-13 22:00:00,15.96915126,0.0005842999999999,53.2164,13.9351,350.8003,207.2523,0.00054866,0.00239591,3.4078e-05,0 STARLINK-3537,1 52088U 22029A   22103.91667824  .00239591  34078-4  54866-3 0  9996,2 52088  53.2164  13.9351 0005843 350.8003 207.2523 15.96915126  2735,6661.12,90.174,286.878,279.093,0.0
52088.0,STARLINK-3537,PAYLOAD,2022-04-14 04:00:00,15.96960612,0.0006044,53.2162,12.6556,351.6828,204.444,0.00061243,0.00268543,4.0044e-05,0 STARLINK-3537,1 52088U 22029A   22104.16667824  .00268543  40044-4  61243-3 0  9990,2 52088  53.2162  12.6556 0006044 351.6828 204.4440 15.96960612  5396,6660.994000000002,90.171,286.885,278.833,0.0
52088.0,STARLINK-3537,PAYLOAD,2022-04-14 12:00:00,15.97160151,0.0005687,53.2157,10.9452,351.2756,322.4798,0.00056266,0.0024916,3.6049e-05,0 STARLINK-3537,1 52088U 22029A   22104.50001157  .00249160  36049-4  56266-3 0  9992,2 52088  53.2157  10.9452 0005687 351.2756 322.4798 15.97160151  5448,6660.439,90.16,286.092,278.516,0.0
52088.0,STARLINK-3537,PAYLOAD,2022-04-14 14:00:01,15.97181292,0.0005579,53.2155,10.5176,350.7596,82.4395,0.00066175,0.00293948,4.5974e-05,0 STARLINK-3537,1 52088U 22029A   22104.58334491  .00293948  45974-4  66175-3 0  9990,2 52088  53.2155  10.5176 0005579 350.7596  82.4395 15.97181292  2836,6660.38,90.159,285.961,278.53,0.0
52088.0,STARLINK-3537,PAYLOAD,2022-04-14 20:00:01,15.97317067,0.0005612999999999,53.2159,9.2365,352.4451,79.0951,0.00042651,0.00189704,2.558800000000001e-05,0 STARLINK-3537,1 52088U 22029A   22104.83334491  .00189704  25588-4  42651-3 0  9994,2 52088  53.2159   9.2365 0005613 352.4451  79.0951 15.97317067  5499,6660.003000000002,90.151,285.606,278.13,0.0
52088.0,STARLINK-3537,PAYLOAD,2022-04-14 22:00:00,15.97351311,0.0005711,53.2159,8.8099,352.3268,198.6947,0.00041419,0.00184492,2.4815e-05,0 STARLINK-3537,1 52088U 22029A   22104.91667824  .00184492  24815-4  41419-3 0  9994,2 52088  53.2159   8.8099 0005711 352.3268 198.6947 15.97351311  2896,6659.908,90.149,285.576,277.969,0.0
52088.0,STARLINK-3537,PAYLOAD,2022-04-15 04:00:00,15.97793824,0.0005688,53.2158,7.5285,349.2674,200.6567,0.001437,0.00663285,0.00020263,0 STARLINK-3537,1 52088U 22029A   22105.16667824  .00663285  20263-3  14370-2 0  9991,2 52088  53.2158   7.5285 0005688 349.2674 200.6567 15.97793824  5554,6658.678000000001,90.124,284.33,276.756,0.0
52088.0,STARLINK-3537,PAYLOAD,2022-04-15 10:42:54,15.97874991,0.0005695,53.2157,6.0911,352.4304,7.664,0.00075255,0.00348009,6.0803e-05,0 STARLINK-3537,1 52088U 22029A   22105.44645860  .00348009  60803-4  75255-3 0  9997,2 52088  53.2157   6.0911 0005695 352.4304   7.6640 15.97874991  5593,6658.453,90.12,284.11,276.526,0.0
52088.0,STARLINK-3537,PAYLOAD,2022-04-15 14:00:01,15.98023243,0.0005361,53.2156,5.3883,350.9513,77.1133,0.0010251,0.00478873,0.00010754,0 STARLINK-3537,1 52088U 22029A   22105.58334491  .00478873  10754-3  10251-2 0  9993,2 52088  53.2156   5.3883 0005361 350.9513  77.1133 15.98023243  3007,6658.041,90.111,283.475,276.336,0.0
52088.0,STARLINK-3537,PAYLOAD,2022-04-15 20:00:01,15.98216435,0.0005434999999999,53.2157,4.1061,351.5808,75.5472,0.00079267,0.00373782,6.8938e-05,0 STARLINK-3537,1 52088U 22029A   22105.83334491  .00373782  68938-4  79267-3 0  9995,2 52088  53.2157   4.1061 0005435 351.5808  75.5472 15.98216435  5657,6657.504,90.1,282.988,275.751,0.0
52088.0,STARLINK-3537,PAYLOAD,2022-04-15 22:00:00,15.98278826,0.000554,53.2156,3.6789,351.0817,195.8033,0.00079431,0.00375908,6.9669e-05,0 STARLINK-3537,1 52088U 22029A   22105.91667824  .00375908  69669-4  79431-3 0  9990,2 52088  53.2156   3.6789 0005540 351.0817 195.8033 15.98278826  3052,6657.331,90.097,282.884,275.508,0.0
52088.0,STARLINK-3537,PAYLOAD,2022-04-16 04:00:00,15.98369232,0.0005755,53.2155,2.3967,351.1591,194.9842,0.00095961,0.00457065,9.9026e-05,0 STARLINK-3537,1 52088U 22029A   22106.16667824  .00457065  99026-4  95961-3 0  9999,2 52088  53.2155   2.3967 0005755 351.1591 194.9842 15.98369232  5707,6657.08,90.092,282.776,275.11400000000003,0.0
52088.0,STARLINK-3537,PAYLOAD,2022-04-16 12:00:02,15.97638709,0.0005425,53.2181,0.6803,353.1484,312.3263,-0.00043627,-0.0020476,2.5698e-05,0 STARLINK-3537,1 52088U 22029A   22106.50002315 -.00204760  25698-4 -43627-3 0  9995,2 52088  53.2181   0.6803 0005425 353.1484 312.3263 15.97638709  5758,6659.109,90.133,284.587,277.361,0.0
52088.0,STARLINK-3537,PAYLOAD,2022-04-16 14:00:01,15.97059029,0.0005453999999999,53.2173,0.2519,348.3512,76.8136,0.0020604,0.00911674,0.00039004,0 STARLINK-3537,1 52088U 22029A   22106.58334491  .00911674  39004-3  20604-2 0  9997,2 52088  53.2173   0.2519 0005454 348.3512  76.8136 15.97059029  3165,6660.72,90.166,286.218,278.953,0.0
52088.0,STARLINK-3537,PAYLOAD,2022-04-16 16:00:00,15.97397496,0.0005627999999999,53.218,359.8234,348.7613,195.757,0.0011120999999999,0.00501905,0.00011657,0 STARLINK-3537,1 52088U 22029A   22106.66667824  .00501905  11657-3  11121-2 0  9995,2 52088  53.2180 359.8234 0005628 348.7613 195.7570 15.97397496  5785,6659.779,90.147,285.392,277.896,0.0
52088.0,STARLINK-3537,PAYLOAD,2022-04-20 04:00:00,15.93599449,0.0001026,53.2171,341.9184,79.8971,64.0443,-0.0018029,-0.00669189,0.00015125,0 STARLINK-3537,1 52088U 22029A   22110.16667824 -.00669189  15125-3 -18029-2 0  9994,2 52088  53.2171 341.9184 0001026  79.8971  64.0443 15.93599449  6346,6670.357,90.361,292.906,291.5370000000001,0.0
52088.0,STARLINK-3537,PAYLOAD,2022-04-20 14:00:01,15.93055329,0.0001012,53.2174,339.792,65.7015,309.6288,-0.0018495,-0.00667071,0.00014959,0 STARLINK-3537,1 52088U 22029A   22110.58334491 -.00667071  14959-3 -18495-2 0  9990,2 52088  53.2174 339.7920 0001012  65.7015 309.6288 15.93055329  2244,6671.876,90.392,294.416,293.065,0.0
